[{"OBJECT_NAME":"STARLINK-4049","OBJECT_ID":"2022-062L","EPOCH":"2026-03-20T06:51:22.764096","MEAN_MOTION":15.09401918,"ECCENTRICITY":0.0003561,"INCLINATION":53.2187,"RA_OF_ASC_NODE":346.6666,"ARG_OF_PERICENTER":149.4883,"MEAN_ANOMALY":210.6318,"EPHEMERIS_TYPE":0,"CLASSIFICATION_TYPE":"U","NORAD_CAT_ID":52840,"ELEMENT_SET_NO":999,"REV_AT_EPOCH":20738,"BSTAR":0.010175,"MEAN_MOTION_DOT":0.00168117,"MEAN_MOTION_DDOT":0},{"OBJECT_NAME":"STARLINK-4065","OBJECT_ID":"2022-062M","EPOCH":"2026-03-20T11:00:50.834016","MEAN_MOTION":15.08835858,"ECCENTRICITY":0.0001331,"INCLINATION":53.2189,"RA_OF_ASC_NODE":345.7757,"ARG_OF_PERICENTER":89.1574,"MEAN_ANOMALY":270.9571,"EPHEMERIS_TYPE":0,"CLASSIFICATION_TYPE":"U","NORAD_CAT_ID":52841,"ELEMENT_SET_NO":999,"REV_AT_EPOCH":20741,"BSTAR":0.0001374,"MEAN_MOTION_DOT":1.899e-5,"MEAN_MOTION_DDOT":0},{"OBJECT_NAME":"STARLINK-4046","OBJECT_ID":"2022-062N","EPOCH":"2026-03-20T00:14:19.051008","MEAN_MOTION":15.08843578,"ECCENTRICITY":0.00013754,"INCLINATION":53.2196,"RA_OF_ASC_NODE":347.7163,"ARG_OF_PERICENTER":78.7674,"MEAN_ANOMALY":281.3473,"EPHEMERIS_TYPE":0,"CLASSIFICATION_TYPE":"U","NORAD_CAT_ID":52842,"ELEMENT_SET_NO":999,"REV_AT_EPOCH":20734,"BSTAR":-2.7006196e-5,"MEAN_MOTION_DOT":-7.18e-6,"MEAN_MOTION_DDOT":0},{"OBJECT_NAME":"STARLINK-4188","OBJECT_ID":"2022-062P","EPOCH":"2026-03-20T02:53:19.496256","MEAN_MOTION":15.0883877,"ECCENTRICITY":0.00017448,"INCLINATION":53.2192,"RA_OF_ASC_NODE":347.2973,"ARG_OF_PERICENTER":96.0215,"MEAN_ANOMALY":264.0976,"EPHEMERIS_TYPE":0,"CLASSIFICATION_TYPE":"U","NORAD_CAT_ID":52843,"ELEMENT_SET_NO":999,"REV_AT_EPOCH":20736,"BSTAR":4.7761504e-5,"MEAN_MOTION_DOT":4.72e-6,"MEAN_MOTION_DDOT":0},{"OBJECT_NAME":"STARLINK-4208","OBJECT_ID":"2022-062Q","EPOCH":"2026-03-20T11:11:27.122496","MEAN_MOTION":15.08838534,"ECCENTRICITY":0.000135,"INCLINATION":53.2187,"RA_OF_ASC_NODE":345.7436,"ARG_OF_PERICENTER":84.4493,"MEAN_ANOMALY":275.6653,"EPHEMERIS_TYPE":0,"CLASSIFICATION_TYPE":"U","NORAD_CAT_ID":52844,"ELEMENT_SET_NO":999,"REV_AT_EPOCH":20741,"BSTAR":-4.9921e-5,"MEAN_MOTION_DOT":-1.082e-5,"MEAN_MOTION_DDOT":0},{"OBJECT_NAME":"STARLINK-4168","OBJECT_ID":"2022-062R","EPOCH":"2026-03-20T10:55:33.796128","MEAN_MOTION":15.08835766,"ECCENTRICITY":0.0001403,"INCLINATION":53.2196,"RA_OF_ASC_NODE":345.8573,"ARG_OF_PERICENTER":89.8342,"MEAN_ANOMALY":270.281,"EPHEMERIS_TYPE":0,"CLASSIFICATION_TYPE":"U","NORAD_CAT_ID":52845,"ELEMENT_SET_NO":999,"REV_AT_EPOCH":20741,"BSTAR":5.9446e-5,"MEAN_MOTION_DOT":6.58e-6,"MEAN_MOTION_DDOT":0},{"OBJECT_NAME":"STARLINK-4212","OBJECT_ID":"2022-062S","EPOCH":"2026-03-20T10:56:55.760352","MEAN_MOTION":15.08836703,"ECCENTRICITY":0.0001338,"INCLINATION":53.2188,"RA_OF_ASC_NODE":345.7972,"ARG_OF_PERICENTER":89.617,"MEAN_ANOMALY":270.4975,"EPHEMERIS_TYPE":0,"CLASSIFICATION_TYPE":"U","NORAD_CAT_ID":52846,"ELEMENT_SET_NO":999,"REV_AT_EPOCH":20741,"BSTAR":3.1365e-5,"MEAN_MOTION_DOT":2.11e-6,"MEAN_MOTION_DDOT":0},{"OBJECT_NAME":"STARLINK-4206","OBJECT_ID":"2022-062T","EPOCH":"2026-03-20T10:39:39.082176","MEAN_MOTION":15.08838251,"ECCENTRICITY":0.0001466,"INCLINATION":53.2194,"RA_OF_ASC_NODE":345.8467,"ARG_OF_PERICENTER":91.8835,"MEAN_ANOMALY":268.2325,"EPHEMERIS_TYPE":0,"CLASSIFICATION_TYPE":"U","NORAD_CAT_ID":52847,"ELEMENT_SET_NO":999,"REV_AT_EPOCH":20741,"BSTAR":7.0863e-5,"MEAN_MOTION_DOT":8.4e-6,"MEAN_MOTION_DDOT":0},{"OBJECT_NAME":"STARLINK-4202","OBJECT_ID":"2022-062U","EPOCH":"2026-03-20T11:06:08.472384","MEAN_MOTION":15.08843221,"ECCENTRICITY":0.0001399,"INCLINATION":53.219,"RA_OF_ASC_NODE":345.7601,"ARG_OF_PERICENTER":83.4806,"MEAN_ANOMALY":276.6345,"EPHEMERIS_TYPE":0,"CLASSIFICATION_TYPE":"U","NORAD_CAT_ID":52848,"ELEMENT_SET_NO":999,"REV_AT_EPOCH":20741,"BSTAR":7.0924e-5,"MEAN_MOTION_DOT":8.41e-6,"MEAN_MOTION_DDOT":0},{"OBJECT_NAME":"STARLINK-4197","OBJECT_ID":"2022-062V","EPOCH":"2026-03-20T10:30:23.811840","MEAN_MOTION":15.08852998,"ECCENTRICITY":0.000129,"INCLINATION":53.2174,"RA_OF_ASC_NODE":335.8715,"ARG_OF_PERICENTER":88.7136,"MEAN_ANOMALY":271.4004,"EPHEMERIS_TYPE":0,"CLASSIFICATION_TYPE":"U","NORAD_CAT_ID":52849,"ELEMENT_SET_NO":999,"REV_AT_EPOCH":20754,"BSTAR":0.00046945,"MEAN_MOTION_DOT":7.194e-5,"MEAN_MOTION_DDOT":0},{"OBJECT_NAME":"STARLINK-4187","OBJECT_ID":"2022-062W","EPOCH":"2026-03-20T03:37:09.555456","MEAN_MOTION":15.08840065,"ECCENTRICITY":0.0001482,"INCLINATION":53.2192,"RA_OF_ASC_NODE":347.5174,"ARG_OF_PERICENTER":93.5936,"MEAN_ANOMALY":266.5226,"EPHEMERIS_TYPE":0,"CLASSIFICATION_TYPE":"U","NORAD_CAT_ID":52850,"ELEMENT_SET_NO":999,"REV_AT_EPOCH":20736,"BSTAR":-4.148605e-5,"MEAN_MOTION_DOT":-9.48e-6,"MEAN_MOTION_DDOT":0},{"OBJECT_NAME":"STARLINK-3809","OBJECT_ID":"2022-062X","EPOCH":"2026-03-20T10:25:04.466208","MEAN_MOTION":15.0884282,"ECCENTRICITY":0.0001358,"INCLINATION":53.2187,"RA_OF_ASC_NODE":335.8877,"ARG_OF_PERICENTER":85.7548,"MEAN_ANOMALY":274.36,"EPHEMERIS_TYPE":0,"CLASSIFICATION_TYPE":"U","NORAD_CAT_ID":52851,"ELEMENT_SET_NO":999,"REV_AT_EPOCH":20754,"BSTAR":4.3917e-5,"MEAN_MOTION_DOT":4.11e-6,"MEAN_MOTION_DDOT":0},{"OBJECT_NAME":"STARLINK-4184","OBJECT_ID":"2022-062Y","EPOCH":"2026-03-20T02:38:44.716128","MEAN_MOTION":15.08841898,"ECCENTRICITY":0.00014121,"INCLINATION":53.219,"RA_OF_ASC_NODE":337.3428,"ARG_OF_PERICENTER":91.21,"MEAN_ANOMALY":268.9054,"EPHEMERIS_TYPE":0,"CLASSIFICATION_TYPE":"U","NORAD_CAT_ID":52852,"ELEMENT_SET_NO":999,"REV_AT_EPOCH":20749,"BSTAR":2.8389622e-5,"MEAN_MOTION_DOT":1.64e-6,"MEAN_MOTION_DDOT":0},{"OBJECT_NAME":"STARLINK-4189","OBJECT_ID":"2022-062Z","EPOCH":"2026-03-20T10:10:33.474720","MEAN_MOTION":15.08835995,"ECCENTRICITY":0.000132,"INCLINATION":53.2183,"RA_OF_ASC_NODE":335.9073,"ARG_OF_PERICENTER":91.5464,"MEAN_ANOMALY":268.5679,"EPHEMERIS_TYPE":0,"CLASSIFICATION_TYPE":"U","NORAD_CAT_ID":52853,"ELEMENT_SET_NO":999,"REV_AT_EPOCH":20754,"BSTAR":0.00015026,"MEAN_MOTION_DOT":2.104e-5,"MEAN_MOTION_DDOT":0},{"OBJECT_NAME":"STARLINK-4204","OBJECT_ID":"2022-062AA","EPOCH":"2026-03-20T10:19:46.402752","MEAN_MOTION":15.08844527,"ECCENTRICITY":0.0001417,"INCLINATION":53.2181,"RA_OF_ASC_NODE":335.903,"ARG_OF_PERICENTER":86.7402,"MEAN_ANOMALY":273.3752,"EPHEMERIS_TYPE":0,"CLASSIFICATION_TYPE":"U","NORAD_CAT_ID":52854,"ELEMENT_SET_NO":999,"REV_AT_EPOCH":20754,"BSTAR":4.0686e-5,"MEAN_MOTION_DOT":3.6e-6,"MEAN_MOTION_DDOT":0},{"OBJECT_NAME":"STARLINK-4209","OBJECT_ID":"2022-062AB","EPOCH":"2026-03-20T10:03:52.881984","MEAN_MOTION":15.08839996,"ECCENTRICITY":0.0001251,"INCLINATION":53.2179,"RA_OF_ASC_NODE":335.9577,"ARG_OF_PERICENTER":87.4658,"MEAN_ANOMALY":272.6477,"EPHEMERIS_TYPE":0,"CLASSIFICATION_TYPE":"U","NORAD_CAT_ID":52855,"ELEMENT_SET_NO":999,"REV_AT_EPOCH":20754,"BSTAR":3.8789e-5,"MEAN_MOTION_DOT":3.3e-6,"MEAN_MOTION_DDOT":0},{"OBJECT_NAME":"STARLINK-4201","OBJECT_ID":"2022-062AC","EPOCH":"2026-03-20T10:15:52.123104","MEAN_MOTION":15.08838384,"ECCENTRICITY":0.000145,"INCLINATION":53.2184,"RA_OF_ASC_NODE":335.9622,"ARG_OF_PERICENTER":86.8803,"MEAN_ANOMALY":273.2355,"EPHEMERIS_TYPE":0,"CLASSIFICATION_TYPE":"U","NORAD_CAT_ID":52856,"ELEMENT_SET_NO":999,"REV_AT_EPOCH":20754,"BSTAR":0.00015578,"MEAN_MOTION_DOT":2.192e-5,"MEAN_MOTION_DDOT":0}]
