STARLINK-4049           
1 52840U 22062L   26079.28568014  .00168117  00000+0  10175-1 0  9997
2 52840  53.2187 346.6666 0003561 149.4883 210.6318 15.09401918207385
STARLINK-4065           
1 52841U 22062M   26079.45892169  .00001899  00000+0  13740-3 0  9994
2 52841  53.2189 345.7757 0001331  89.1574 270.9571 15.08835858207416
STARLINK-4046           
1 52842U 22062N   26079.00994272 -.00000718  00000+0 -27006-4 0  9996
2 52842  53.2196 347.7163 0001375  78.7674 281.3473 15.08843578207348
STARLINK-4188           
1 52843U 22062P   26079.12036454  .00000472  00000+0  47762-4 0  9995
2 52843  53.2192 347.2973 0001744  96.0215 264.0976 15.08838770207369
STARLINK-4208           
1 52844U 22062Q   26079.46628614 -.00001082  00000+0 -49921-4 0  9997
2 52844  53.2187 345.7436 0001350  84.4493 275.6653 15.08838534207417
STARLINK-4168           
1 52845U 22062R   26079.45525227  .00000658  00000+0  59446-4 0  9992
2 52845  53.2196 345.8573 0001403  89.8342 270.2810 15.08835766207412
STARLINK-4212           
1 52846U 22062S   26079.45620093  .00000211  00000+0  31365-4 0  9995
2 52846  53.2188 345.7972 0001338  89.6170 270.4975 15.08836703207416
STARLINK-4206           
1 52847U 22062T   26079.44420234  .00000840  00000+0  70863-4 0  9994
2 52847  53.2194 345.8467 0001466  91.8835 268.2325 15.08838251207413
STARLINK-4202           
1 52848U 22062U   26079.46259806  .00000841  00000+0  70924-4 0  9991
2 52848  53.2190 345.7601 0001399  83.4806 276.6345 15.08843221207417
STARLINK-4197           
1 52849U 22062V   26079.43777560  .00007194  00000+0  46945-3 0  9994
2 52849  53.2174 335.8715 0001290  88.7136 271.4004 15.08852998207540
STARLINK-4187           
1 52850U 22062W   26079.15080504 -.00000948  00000+0 -41486-4 0  9998
2 52850  53.2192 347.5174 0001482  93.5936 266.5226 15.08840065207369
STARLINK-3809           
1 52851U 22062X   26079.43407947  .00000411  00000+0  43917-4 0  9998
2 52851  53.2187 335.8877 0001358  85.7548 274.3600 15.08842820207542
STARLINK-4184           
1 52852U 22062Y   26079.11023977  .00000164  00000+0  28390-4 0  9994
2 52852  53.2190 337.3428 0001412  91.2100 268.9054 15.08841898207493
STARLINK-4189           
1 52853U 22062Z   26079.42399855  .00002104  00000+0  15026-3 0  9997
2 52853  53.2183 335.9073 0001320  91.5464 268.5679 15.08835995207546
STARLINK-4204           
1 52854U 22062AA  26079.43039818  .00000360  00000+0  40686-4 0  9992
2 52854  53.2181 335.9030 0001417  86.7402 273.3752 15.08844527207540
STARLINK-4209           
1 52855U 22062AB  26079.41936206  .00000330  00000+0  38789-4 0  9996
2 52855  53.2179 335.9577 0001251  87.4658 272.6477 15.08839996207541
STARLINK-4201           
1 52856U 22062AC  26079.42768661  .00002192  00000+0  15578-3 0  9994
2 52856  53.2184 335.9622 0001450  86.8803 273.2355 15.08838384207547
